start=new Date('2023-05-02T00:00:00.000Z').valueOf();
sats=[{"EPHEMERIS_TYPE":"0","FILE":"3898518","SEMIMAJOR_AXIS":"6925.309","MEAN_MOTION_DOT":"0.00011923","OBJECT_ID":"2019-074M","INCLINATION":"53.0543","TLE_LINE1":"1 44724U 19074M   23121.70577410  .00011923  00000-0  81771-3 0  9995","RA_OF_ASC_NODE":"188.7519","PERIOD":"95.591","CLASSIFICATION_TYPE":"U","ECCENTRICITY":"0.00013420","GP_ID":"231048989","CENTER_NAME":"EARTH","PERIAPSIS":"546.244","OBJECT_TYPE":"PAYLOAD","MEAN_ANOMALY":"264.8139","NORAD_CAT_ID":"44724","APOAPSIS":"548.103","EPOCH":"2023-05-01T16:56:18.882240","REV_AT_EPOCH":"19154","BSTAR":"0.00081771000000","DECAY_DATE":null,"RCS_SIZE":"LARGE","ARG_OF_PERICENTER":"95.3003","MEAN_MOTION":"15.06413062","REF_FRAME":"TEME","COUNTRY_CODE":"US","MEAN_MOTION_DDOT":"0.0000000000000","OBJECT_NAME":"STARLINK-1019","MEAN_ELEMENT_THEORY":"SGP4","ELEMENT_SET_NO":"999","TLE_LINE2":"2 44724  53.0543 188.7519 0001342  95.3003 264.8139 15.06413062191543","SITE":"AFETR","LAUNCH_DATE":"2019-11-11","TIME_SYSTEM":"UTC"},{"ECCENTRICITY":"0.00012600","GP_ID":"231016178","CENTER_NAME":"EARTH","CLASSIFICATION_TYPE":"U","APOAPSIS":"548.075","EPOCH":"2023-05-01T12:17:41.210592","PERIAPSIS":"546.330","NORAD_CAT_ID":"44725","OBJECT_TYPE":"PAYLOAD","MEAN_ANOMALY":"293.1870","FILE":"3898258","SEMIMAJOR_AXIS":"6925.338","OBJECT_ID":"2019-074N","MEAN_MOTION_DOT":"0.00012994","INCLINATION":"53.0523","EPHEMERIS_TYPE":"0","RA_OF_ASC_NODE":"209.6218","PERIOD":"95.592","TLE_LINE1":"1 44725U 19074N   23121.51228253  .00012994  00000-0  88950-3 0  9998","OBJECT_NAME":"STARLINK-1020","MEAN_ELEMENT_THEORY":"SGP4","SITE":"AFETR","LAUNCH_DATE":"2019-11-11","TIME_SYSTEM":"UTC","ELEMENT_SET_NO":"999","TLE_LINE2":"2 44725  53.0523 209.6218 0001260  66.9252 293.1870 15.06403478191233","DECAY_DATE":null,"RCS_SIZE":"LARGE","ARG_OF_PERICENTER":"66.9252","BSTAR":"0.00088950000000","REV_AT_EPOCH":"19123","COUNTRY_CODE":"US","MEAN_MOTION_DDOT":"0.0000000000000","MEAN_MOTION":"15.06403478","REF_FRAME":"TEME"},{"BSTAR":"0.00155630000000","DECAY_DATE":null,"RCS_SIZE":"LARGE","ARG_OF_PERICENTER":"100.1732","REV_AT_EPOCH":"19154","MEAN_MOTION_DDOT":"0.0000000000000","COUNTRY_CODE":"US","REF_FRAME":"TEME","MEAN_MOTION":"15.06369636","MEAN_ELEMENT_THEORY":"SGP4","OBJECT_NAME":"STARLINK-1021","TIME_SYSTEM":"UTC","LAUNCH_DATE":"2019-11-11","SITE":"AFETR","TLE_LINE2":"2 44726  53.0535 188.7735 0001723 100.1732 259.9451 15.06369636191542","ELEMENT_SET_NO":"999","INCLINATION":"53.0535","FILE":"3898518","OBJECT_ID":"2019-074P","SEMIMAJOR_AXIS":"6925.442","MEAN_MOTION_DOT":"0.00022957","EPHEMERIS_TYPE":"0","PERIOD":"95.594","RA_OF_ASC_NODE":"188.7735","TLE_LINE1":"1 44726U 19074P   23121.70213421  .00022957  00000-0  15563-2 0  9990","CENTER_NAME":"EARTH","GP_ID":"231047487","ECCENTRICITY":"0.00017230","CLASSIFICATION_TYPE":"U","EPOCH":"2023-05-01T16:51:04.395744","APOAPSIS":"548.500","MEAN_ANOMALY":"259.9451","OBJECT_TYPE":"PAYLOAD","NORAD_CAT_ID":"44726","PERIAPSIS":"546.113"},{"TLE_LINE2":"2 44727  53.0547 219.8653 0001044  93.0646 267.0493 15.76756573191128","ELEMENT_SET_NO":"999","TIME_SYSTEM":"UTC","LAUNCH_DATE":"2019-11-11","SITE":"AFETR","MEAN_ELEMENT_THEORY":"SGP4","OBJECT_NAME":"STARLINK-1022","REF_FRAME":"TEME","MEAN_MOTION":"15.76756573","MEAN_MOTION_DDOT":"0.0000000000000","COUNTRY_CODE":"US","REV_AT_EPOCH":"19112","DECAY_DATE":null,"RCS_SIZE":"LARGE","ARG_OF_PERICENTER":"93.0646","BSTAR":"0.00022545000000","MEAN_ANOMALY":"267.0493","OBJECT_TYPE":"PAYLOAD","NORAD_CAT_ID":"44727","PERIAPSIS":"338.938","EPOCH":"2023-05-01T16:50:42.112320","APOAPSIS":"340.341","CLASSIFICATION_TYPE":"U","CENTER_NAME":"EARTH","GP_ID":"231048238","ECCENTRICITY":"0.00010440","TLE_LINE1":"1 44727U 19074Q   23121.70187630  .00036451  00000-0  22545-3 0  9996","PERIOD":"91.327","RA_OF_ASC_NODE":"219.8653","EPHEMERIS_TYPE":"0","INCLINATION":"53.0547","OBJECT_ID":"2019-074Q","FILE":"3898518","SEMIMAJOR_AXIS":"6717.774","MEAN_MOTION_DOT":"0.00036451"},{"ELEMENT_SET_NO":"999","TLE_LINE2":"2 44729  53.0197 160.8394 0010855   9.9980 350.1238 15.43667352191889","SITE":"AFETR","LAUNCH_DATE":"2019-11-11","TIME_SYSTEM":"UTC","OBJECT_NAME":"STARLINK-1024","MEAN_ELEMENT_THEORY":"SGP4","MEAN_MOTION":"15.43667352","REF_FRAME":"TEME","COUNTRY_CODE":"US","MEAN_MOTION_DDOT":"0.0000000000000","REV_AT_EPOCH":"19188","DECAY_DATE":null,"RCS_SIZE":"LARGE","BSTAR":"0.00115510000000","ARG_OF_PERICENTER":"9.9980","PERIAPSIS":"427.903","OBJECT_TYPE":"PAYLOAD","MEAN_ANOMALY":"350.1238","NORAD_CAT_ID":"44729","APOAPSIS":"442.695","EPOCH":"2023-05-01T15:01:07.689216","CLASSIFICATION_TYPE":"U","ECCENTRICITY":"0.00108550","GP_ID":"231048489","CENTER_NAME":"EARTH","TLE_LINE1":"1 44729U 19074S   23121.62578344  .00052932  00000-0  11551-2 0  9991","RA_OF_ASC_NODE":"160.8394","PERIOD":"93.284","EPHEMERIS_TYPE":"0","OBJECT_ID":"2019-074S","FILE":"3898518","SEMIMAJOR_AXIS":"6813.434","MEAN_MOTION_DOT":"0.00052932","INCLINATION":"53.0197"},{"CLASSIFICATION_TYPE":"U","GP_ID":"231015678","ECCENTRICITY":"0.00013240","CENTER_NAME":"EARTH","OBJECT_TYPE":"PAYLOAD","MEAN_ANOMALY":"263.8222","NORAD_CAT_ID":"44731","PERIAPSIS":"546.254","APOAPSIS":"548.087","EPOCH":"2023-05-01T12:20:18.724704","EPHEMERIS_TYPE":"0","FILE":"3898258","OBJECT_ID":"2019-074U","SEMIMAJOR_AXIS":"6925.305","MEAN_MOTION_DOT":"0.00013866","INCLINATION":"53.0525","TLE_LINE1":"1 44731U 19074U   23121.51410561  .00013866  00000-0  94756-3 0  9990","RA_OF_ASC_NODE":"189.6109","PERIOD":"95.591","MEAN_ELEMENT_THEORY":"SGP4","OBJECT_NAME":"STARLINK-1026","ELEMENT_SET_NO":"999","TLE_LINE2":"2 44731  53.0525 189.6109 0001324  96.2917 263.8222 15.06414071191510","LAUNCH_DATE":"2019-11-11","SITE":"AFETR","TIME_SYSTEM":"UTC","REV_AT_EPOCH":"19151","DECAY_DATE":null,"RCS_SIZE":"LARGE","ARG_OF_PERICENTER":"96.2917","BSTAR":"0.00094756000000","REF_FRAME":"TEME","MEAN_MOTION":"15.06414071","COUNTRY_CODE":"US","MEAN_MOTION_DDOT":"0.0000000000000"},{"LAUNCH_DATE":"2019-11-11","SITE":"AFETR","TIME_SYSTEM":"UTC","ELEMENT_SET_NO":"999","TLE_LINE2":"2 44732  53.0528 209.0754 0001376  76.9411 283.1732 15.06419706191250","OBJECT_NAME":"STARLINK-1027","MEAN_ELEMENT_THEORY":"SGP4","COUNTRY_CODE":"US","MEAN_MOTION_DDOT":"0.0000000000000","MEAN_MOTION":"15.06419706","REF_FRAME":"TEME","DECAY_DATE":null,"RCS_SIZE":"LARGE","BSTAR":"0.00117790000000","ARG_OF_PERICENTER":"76.9411","REV_AT_EPOCH":"19125","APOAPSIS":"548.106","EPOCH":"2023-05-01T15:12:50.249952","PERIAPSIS":"546.200","NORAD_CAT_ID":"44732","OBJECT_TYPE":"PAYLOAD","MEAN_ANOMALY":"283.1732","ECCENTRICITY":"0.00013760","GP_ID":"231047988","CENTER_NAME":"EARTH","CLASSIFICATION_TYPE":"U","RA_OF_ASC_NODE":"209.0754","PERIOD":"95.591","TLE_LINE1":"1 44732U 19074V   23121.63391493  .00017316  00000-0  11779-2 0  9993","SEMIMAJOR_AXIS":"6925.288","FILE":"3898518","OBJECT_ID":"2019-074V","MEAN_MOTION_DOT":"0.00017316","INCLINATION":"53.0528","EPHEMERIS_TYPE":"0"},{"MEAN_MOTION_DDOT":"0.0000000000000","COUNTRY_CODE":"US","MEAN_MOTION":"15.06430230","REF_FRAME":"TEME","DECAY_DATE":null,"ARG_OF_PERICENTER":"103.5210","RCS_SIZE":"LARGE","BSTAR":"0.00098342000000","REV_AT_EPOCH":"19153","TIME_SYSTEM":"UTC","SITE":"AFETR","LAUNCH_DATE":"2019-11-11","TLE_LINE2":"2 44733  53.0537 189.0859 0001500 103.5210 256.5946 15.06430230191534","ELEMENT_SET_NO":"999","OBJECT_NAME":"STARLINK-1028","MEAN_ELEMENT_THEORY":"SGP4","PERIOD":"95.590","RA_OF_ASC_NODE":"189.0859","TLE_LINE1":"1 44733U 19074W   23121.63205934  .00014409  00000-0  98342-3 0  9990","INCLINATION":"53.0537","FILE":"3898518","SEMIMAJOR_AXIS":"6925.256","OBJECT_ID":"2019-074W","MEAN_MOTION_DOT":"0.00014409","EPHEMERIS_TYPE":"0","EPOCH":"2023-05-01T15:10:09.926976","APOAPSIS":"548.160","PERIAPSIS":"546.082","MEAN_ANOMALY":"256.5946","OBJECT_TYPE":"PAYLOAD","NORAD_CAT_ID":"44733","CENTER_NAME":"EARTH","ECCENTRICITY":"0.00015000","GP_ID":"231047738","CLASSIFICATION_TYPE":"U"},{"TLE_LINE2":"2 44734  53.0530 110.2102 0001437  91.5875 268.5278 15.06405230192597","ELEMENT_SET_NO":"999","TIME_SYSTEM":"UTC","LAUNCH_DATE":"2019-11-11","SITE":"AFETR","MEAN_ELEMENT_THEORY":"SGP4","OBJECT_NAME":"STARLINK-1029","REF_FRAME":"TEME","MEAN_MOTION":"15.06405230","MEAN_MOTION_DDOT":"0.0000000000000","COUNTRY_CODE":"US","REV_AT_EPOCH":"19259","DECAY_DATE":null,"RCS_SIZE":"LARGE","ARG_OF_PERICENTER":"91.5875","BSTAR":"0.00026927000000","OBJECT_TYPE":"PAYLOAD","NORAD_CAT_ID":"44734","MEAN_ANOMALY":"268.5278","PERIAPSIS":"546.202","EPOCH":"2023-05-01T09:09:13.683168","APOAPSIS":"548.193","CLASSIFICATION_TYPE":"U","CENTER_NAME":"EARTH","GP_ID":"231014927","ECCENTRICITY":"0.00014370","TLE_LINE1":"1 44734U 19074X   23121.38140837  .00003732  00000-0  26927-3 0  9990","PERIOD":"95.592","RA_OF_ASC_NODE":"110.2102","EPHEMERIS_TYPE":"0","INCLINATION":"53.0530","MEAN_MOTION_DOT":"0.00003732","FILE":"3898258","SEMIMAJOR_AXIS":"6925.333","OBJECT_ID":"2019-074X"},{"MEAN_MOTION":"15.06417496","REF_FRAME":"TEME","MEAN_MOTION_DDOT":"0.0000000000000","COUNTRY_CODE":"US","REV_AT_EPOCH":"19125","DECAY_DATE":null,"ARG_OF_PERICENTER":"77.9405","RCS_SIZE":"LARGE","BSTAR":"0.00148730000000","TLE_LINE2":"2 44735  53.0533 209.0444 0001326  77.9405 282.1733 15.06417496191258","ELEMENT_SET_NO":"999","TIME_SYSTEM":"UTC","LAUNCH_DATE":"2019-11-11","SITE":"AFETR","OBJECT_NAME":"STARLINK-1030","MEAN_ELEMENT_THEORY":"SGP4","TLE_LINE1":"1 44735U 19074Y   23121.64128441  .00021952  00000-0  14873-2 0  9997","PERIOD":"95.591","RA_OF_ASC_NODE":"209.0444","EPHEMERIS_TYPE":"0","INCLINATION":"53.0533","FILE":"3898518","MEAN_MOTION_DOT":"0.00021952","SEMIMAJOR_AXIS":"6925.295","OBJECT_ID":"2019-074Y","PERIAPSIS":"546.242","OBJECT_TYPE":"PAYLOAD","NORAD_CAT_ID":"44735","MEAN_ANOMALY":"282.1733","EPOCH":"2023-05-01T15:23:26.973024","APOAPSIS":"548.078","CLASSIFICATION_TYPE":"U","CENTER_NAME":"EARTH","ECCENTRICITY":"0.00013260","GP_ID":"231048731"}];
